{
    "links": {
        "self": "http://www.neowsapp.com/rest/v1/neo/3263414?api_key=iIulBulltgU6a56xZRHN4H3l9WmuAYTsLGpBGhQ2"
    },
    "id": "3263414",
    "neo_reference_id": "3263414",
    "name": "(2004 XD6)",
    "designation": "2004 XD6",
    "nasa_jpl_url": "http://ssd.jpl.nasa.gov/sbdb.cgi?sstr=3263414",
    "absolute_magnitude_h": 22.3,
    "estimated_diameter": {
        "kilometers": {
            "estimated_diameter_min": 0.0921626549,
            "estimated_diameter_max": 0.2060819612
        },
        "meters": {
            "estimated_diameter_min": 92.1626548503,
            "estimated_diameter_max": 206.0819612321
        },
        "miles": {
            "estimated_diameter_min": 0.057267201,
            "estimated_diameter_max": 0.1280533543
        },
        "feet": {
            "estimated_diameter_min": 302.370924539,
            "estimated_diameter_max": 676.1219416887
        }
    },
    "is_potentially_hazardous_asteroid": false,
    "close_approach_data": [
        {
            "close_approach_date": "2002-02-17",
            "close_approach_date_full": "2002-Feb-17 05:55",
            "epoch_date_close_approach": 1013925300000,
            "relative_velocity": {
                "kilometers_per_second": "17.5677464716",
                "kilometers_per_hour": "63243.8872977334",
                "miles_per_hour": "39297.2920823055"
            },
            "miss_distance": {
                "astronomical": "0.0650278543",
                "lunar": "25.2958353227",
                "kilometers": "9728028.493950341",
                "miles": "6044716.6089070658"
            },
            "orbiting_body": "Mars"
        },
        {
            "close_approach_date": "2005-01-02",
            "close_approach_date_full": "2005-Jan-02 22:38",
            "epoch_date_close_approach": 1104705480000,
            "relative_velocity": {
                "kilometers_per_second": "12.3481716739",
                "kilometers_per_hour": "44453.4180260522",
                "miles_per_hour": "27621.6252173545"
            },
            "miss_distance": {
                "astronomical": "0.068861101",
                "lunar": "26.786968289",
                "kilometers": "10301474.03545487",
                "miles": "6401039.145502406"
            },
            "orbiting_body": "Earth"
        },
        {
            "close_approach_date": "2010-10-24",
            "close_approach_date_full": "2010-Oct-24 10:54",
            "epoch_date_close_approach": 1287917640000,
            "relative_velocity": {
                "kilometers_per_second": "15.6699750147",
                "kilometers_per_hour": "56411.9100529808",
                "miles_per_hour": "35052.1671104202"
            },
            "miss_distance": {
                "astronomical": "0.0691049238",
                "lunar": "26.8818153582",
                "kilometers": "10337949.406992306",
                "miles": "6423703.8903975828"
            },
            "orbiting_body": "Mars"
        },
        {
            "close_approach_date": "2013-05-15",
            "close_approach_date_full": "2013-May-15 18:11",
            "epoch_date_close_approach": 1368641460000,
            "relative_velocity": {
                "kilometers_per_second": "22.7506406195",
                "kilometers_per_hour": "81902.306230357",
                "miles_per_hour": "50890.9080018571"
            },
            "miss_distance": {
                "astronomical": "0.340863519",
                "lunar": "132.595908891",
                "kilometers": "50992456.40310453",
                "miles": "31685243.144641314"
            },
            "orbiting_body": "Earth"
        },
        {
            "close_approach_date": "2127-06-06",
            "close_approach_date_full": "2127-Jun-06 12:50",
            "epoch_date_close_approach": 4967959800000,
            "relative_velocity": {
                "kilometers_per_second": "15.5632470932",
                "kilometers_per_hour": "56027.6895355164",
                "miles_per_hour": "34813.4274227768"
            },
            "miss_distance": {
                "astronomical": "0.0730402088",
                "lunar": "28.4126412232",
                "kilometers": "10926659.660835256",
                "miles": "6789511.4794122928"
            },
            "orbiting_body": "Mars"
        }
    ],
    "orbital_data": {
        "orbit_id": "18",
        "orbit_determination_date": "2017-04-06 09:11:48",
        "first_observation_date": "2004-12-09",
        "last_observation_date": "2005-01-01",
        "data_arc_in_days": 23,
        "observations_used": 58,
        "orbit_uncertainty": "7",
        "minimum_orbit_intersection": ".0657355",
        "jupiter_tisserand_invariant": "3.677",
        "epoch_osculation": "2459000.5",
        "eccentricity": ".5653377266982026",
        "semi_major_axis": "1.944803474057019",
        "inclination": "6.671003550656852",
        "ascending_node_longitude": "66.62803948486594",
        "orbital_period": "990.631216685833",
        "perihelion_distance": ".845332699158857",
        "perihelion_argument": "88.56742828754848",
        "aphelion_distance": "3.044274248955181",
        "perihelion_time": "2459356.695356112143",
        "mean_anomaly": "230.5569478929129",
        "mean_motion": ".3634046595103107",
        "equinox": "J2000",
        "orbit_class": {
            "orbit_class_type": "APO",
            "orbit_class_description": "Near-Earth asteroid orbits which cross the Earth’s orbit similar to that of 1862 Apollo",
            "orbit_class_range": "a (semi-major axis) > 1.0 AU; q (perihelion) < 1.017 AU"
        }
    },
    "is_sentry_object": false
}